[{"OBJECT_NAME":"KUIPER-00096","OBJECT_ID":"2025-171D","EPOCH":"2026-03-09T22:44:25.114560","MEAN_MOTION":14.79934013,"ECCENTRICITY":4.317e-5,"INCLINATION":51.8989,"RA_OF_ASC_NODE":156.9441,"ARG_OF_PERICENTER":82.7008,"MEAN_ANOMALY":277.4003,"EPHEMERIS_TYPE":0,"CLASSIFICATION_TYPE":"U","NORAD_CAT_ID":65135,"ELEMENT_SET_NO":999,"REV_AT_EPOCH":3293,"BSTAR":0.00019035525,"MEAN_MOTION_DOT":1.23e-5,"MEAN_MOTION_DDOT":0},{"OBJECT_NAME":"SL-14 R\/B","OBJECT_ID":"1988-020B","EPOCH":"2026-03-09T19:49:17.973408","MEAN_MOTION":14.85675832,"ECCENTRICITY":0.00173203,"INCLINATION":82.5398,"RA_OF_ASC_NODE":169.5193,"ARG_OF_PERICENTER":58.4378,"MEAN_ANOMALY":301.8526,"EPHEMERIS_TYPE":0,"CLASSIFICATION_TYPE":"U","NORAD_CAT_ID":18959,"ELEMENT_SET_NO":999,"REV_AT_EPOCH":3218,"BSTAR":6.8077361e-5,"MEAN_MOTION_DOT":6.16e-6,"MEAN_MOTION_DDOT":0}]
